NORAD_CAT_ID,OBJECT_NAME,OBJECT_TYPE,EPOCH,MEAN_MOTION,ECCENTRICITY,INCLINATION,RA_OF_ASC_NODE,ARG_OF_PERICENTER,MEAN_ANOMALY,BSTAR,MEAN_MOTION_DOT,MEAN_MOTION_DDOT,TLE_LINE0,TLE_LINE1,TLE_LINE2,SEMIMAJOR_AXIS,PERIOD,APOGEE,PERIGEE,DECAYED
55427.0,STARLINK-5073,PAYLOAD,2023-09-23 04:29:17,14.98326912,0.0002771,70.0014,189.9641,264.7932,95.2911,0.0001419,1.6e-05,0.0,0 STARLINK-5073,1 55427U 23014AN  23266.18700587  .00001600  00000-0  14190-3 0  9993,2 55427  70.0014 189.9641 0002771 264.7932  95.2911 14.98326912 36972,6950.202,96.107,573.993,570.142,0.0
55427.0,STARLINK-5073,PAYLOAD,2023-09-24 02:55:10,14.98331751,0.0002864,70.0015,187.6087,263.4323,96.651,-4.5494e-05,-6.36e-06,0.0,0 STARLINK-5073,1 55427U 23014AN  23267.12164760 -.00000636  00000-0 -45494-4 0  9997,2 55427  70.0015 187.6087 0002864 263.4323  96.6510 14.98331751 36174,6950.187,96.107,574.043,570.062,0.0
55427.0,STARLINK-5073,PAYLOAD,2023-09-24 04:31:18,14.98334718,0.0002892,70.0014,187.4397,264.4419,95.641,-3.6405e-05,-5.27e-06,0.0,0 STARLINK-5073,1 55427U 23014AN  23267.18840501 -.00000527  00000-0 -36405-4 0  9998,2 55427  70.0014 187.4397 0002892 264.4419  95.6410 14.98334718 37123,6950.178,96.107,574.053,570.033,0.0
55427.0,STARLINK-5073,PAYLOAD,2023-09-24 22:08:47,14.98329795,0.0003084,70.0013,185.5891,272.9948,87.0859,4.501e-06,-3.9e-07,0.0,0 STARLINK-5073,1 55427U 23014AN  23267.92276630 -.00000039  00000-0  45010-5 0  9996,2 55427  70.0013 185.5891 0003084 272.9948  87.0859 14.98329795 37238,6950.194,96.107,574.202,569.915,0.0
55427.0,STARLINK-5073,PAYLOAD,2023-09-25 02:57:10,14.983336,0.0002825,70.0015,185.0844,269.733,90.3505,4.1962e-05,4.08e-06,0.0,0 STARLINK-5073,1 55427U 23014AN  23268.12304278  .00000408  00000-0  41962-4 0  9999,2 55427  70.0015 185.0844 0002825 269.7330  90.3505 14.98333600 36328,6950.182,96.107,574.01,570.083,0.0
55427.0,STARLINK-5073,PAYLOAD,2023-09-25 04:33:18,14.98335362,0.0003013,70.0016,184.9162,275.1344,84.9471,9.9098e-05,1.09e-05,0.0,0 STARLINK-5073,1 55427U 23014AN  23268.18980010  .00001090  00000-0  99098-4 0  9990,2 55427  70.0016 184.9162 0003013 275.1344  84.9471 14.98335362 37279,6950.176,96.107,574.135,569.947,0.0
55427.0,STARLINK-5073,PAYLOAD,2023-09-25 18:58:30,14.98340194,0.0003011,70.0012,183.4009,269.4587,90.6227,8.7253e-05,9.49e-06,0.0,0 STARLINK-5073,1 55427U 23014AN  23268.79063403  .00000949  00000-0  87253-4 0  9997,2 55427  70.0012 183.4009 0003011 269.4587  90.6227 14.98340194 36420,6950.161,96.106,574.119,569.934,0.0
55427.0,STARLINK-5073,PAYLOAD,2023-09-25 20:34:38,14.98337082,0.0003618,70.0009,183.2325,280.9905,79.0846,0.00016231,1.845e-05,0.0,0 STARLINK-5073,1 55427U 23014AN  23268.85739349  .00001845  00000-0  16231-3 0  9996,2 55427  70.0009 183.2325 0003618 280.9905  79.0846 14.98337082 37375,6950.171,96.107,574.551,569.521,0.0
55427.0,STARLINK-5073,PAYLOAD,2023-09-26 02:59:10,14.98346248,0.0002668,70.0016,182.5583,265.5031,94.5823,0.00017568,2.005e-05,0.0,0 STARLINK-5073,1 55427U 23014AN  23269.12442516  .00002005  00000-0  17568-3 0  9997,2 55427  70.0016 182.5583 0002668 265.5031  94.5823 14.98346248 36475,6950.143,96.106,573.862,570.153,0.0
55427.0,STARLINK-5073,PAYLOAD,2023-09-26 04:35:18,14.98344889,0.0003064,70.0017,182.3902,278.3275,81.7536,0.00027541,3.196e-05,0.0,0 STARLINK-5073,1 55427U 23014AN  23269.19118320  .00003196  00000-0  27541-3 0  9991,2 55427  70.0017 182.3902 0003064 278.3275  81.7536 14.98344889 37426,6950.147,96.106,574.141,569.882,0.0
55427.0,STARLINK-5073,PAYLOAD,2023-09-26 17:24:24,14.98325212,0.0002955,70.0006,181.0444,270.1721,89.9099,-0.0001382,-1.741e-05,0.0,0 STARLINK-5073,1 55427U 23014AN  23269.72528481 -.00001741  00000-0 -13820-3 0  9994,2 55427  70.0006 181.0444 0002955 270.1721  89.9099 14.98325212 36562,6950.208,96.107,574.126,570.019,0.0
55427.0,STARLINK-5073,PAYLOAD,2023-09-26 20:36:40,14.98323685,0.0003007,70.0004,180.7076,271.5555,88.5259,-0.00015344,-1.923e-05,0.0,0 STARLINK-5073,1 55427U 23014AN  23269.85880643 -.00001923  00000-0 -15344-3 0  9994,2 55427  70.0004 180.7076 0003007 271.5555  88.5259 14.98323685 37528,6950.212,96.107,574.167,569.987,0.0
55427.0,STARLINK-5073,PAYLOAD,2023-09-27 11:01:53,14.98327018,0.0002772,70.0015,179.1933,268.0815,92.0027,-0.00024616,-3.029e-05,0.0,0 STARLINK-5073,1 55427U 23014AN  23270.45964763 -.00003029  00000-0 -24616-3 0  9999,2 55427  70.0015 179.1933 0002772 268.0815  92.0027 14.98327018 37619,6950.202,96.107,573.994,570.141,0.0
55427.0,STARLINK-5073,PAYLOAD,2023-09-27 19:02:33,14.98327098,0.0002638,70.0013,178.3511,268.0029,92.0828,-0.00021956,-2.711e-05,0.0,0 STARLINK-5073,1 55427U 23014AN  23270.79344821 -.00002711  00000-0 -21956-3 0  9994,2 55427  70.0013 178.3511 0002638 268.0029  92.0828 14.98327098 36726,6950.202,96.107,573.9,570.233,0.0
55427.0,STARLINK-5073,PAYLOAD,2023-09-28 01:27:05,14.98334088,0.0002445,70.0015,177.6777,271.1302,88.9577,-7.5382e-05,-9.92e-06,0.0,0 STARLINK-5073,1 55427U 23014AN  23271.06048026 -.00000992  00000-0 -75382-4 0  9995,2 55427  70.0015 177.6777 0002445 271.1302  88.9577 14.98334088 36765,6950.18,96.107,573.745,570.346,0.0
55427.0,STARLINK-5073,PAYLOAD,2023-09-28 03:03:13,14.98337718,0.0002309,70.0018,177.5098,266.941,93.1485,-7.0634e-05,-9.36e-06,0.0,0 STARLINK-5073,1 55427U 23014AN  23271.12723764 -.00000936  00000-0 -70634-4 0  9994,2 55427  70.0018 177.5098 0002309 266.9410  93.1485 14.98337718 37719,6950.169,96.107,573.639,570.429,0.0
55427.0,STARLINK-5073,PAYLOAD,2023-09-28 20:40:42,14.98323685,0.0002496,70.0015,175.6593,253.9122,106.1762,0.00011371,1.264e-05,0.0,0 STARLINK-5073,1 55427U 23014AN  23271.86160014  .00001264  00000-0  11371-3 0  9993,2 55427  70.0015 175.6593 0002496 253.9122 106.1762 14.98323685 37821,6950.212,96.107,573.812,570.343,0.0
55427.0,STARLINK-5073,PAYLOAD,2023-09-29 03:05:14,14.98325291,0.0002702,70.0008,174.9854,266.227,93.858,0.00010715,1.186e-05,0.0,0 STARLINK-5073,1 55427U 23014AN  23272.12864076  .00001186  00000-0  10715-3 0  9996,2 55427  70.0008 174.9854 0002702 266.2270  93.8580 14.98325291 36921,6950.207,96.107,573.95,570.195,0.0
55427.0,STARLINK-5073,PAYLOAD,2023-09-30 03:07:14,14.98340122,0.0002707,70.0008,172.4601,261.3685,98.7167,4.1039e-05,3.97e-06,0.0,0 STARLINK-5073,1 55427U 23014AN  23273.13003294  .00000397  00000-0  41039-4 0  9992,2 55427  70.0008 172.4601 0002707 261.3685  98.7167 14.98340122 37077,6950.162,96.106,573.908,570.145,0.0
55427.0,STARLINK-5073,PAYLOAD,2023-09-30 17:32:28,14.98327701,0.0002256,70.002,170.947,273.4952,86.5949,-2.0014e-05,-3.32e-06,0.0,0 STARLINK-5073,1 55427U 23014AN  23273.73088311 -.00000332  00000-0 -20014-4 0  9992,2 55427  70.0020 170.9470 0002256 273.4952  86.5949 14.98327701 37169,6950.2,96.107,573.633,570.497,0.0
55427.0,STARLINK-5073,PAYLOAD,2023-10-01 01:33:09,14.98322138,0.0002757,70.0001,170.1043,270.2946,89.7897,-0.00010121,-1.3e-05,0.0,0 STARLINK-5073,1 55427U 23014AN  23274.06468937 -.00001300  00000-0 -10121-3 0  9998,2 55427  70.0001 170.1043 0002757 270.2946  89.7897 14.98322138 37212,6950.217,96.108,573.998,570.166,0.0
55427.0,STARLINK-5073,PAYLOAD,2023-10-01 03:09:17,14.9832446,0.0002729,70.0002,169.9358,269.1983,90.8863,-8.2173e-05,-1.073e-05,0.0,0 STARLINK-5073,1 55427U 23014AN  23274.13144791 -.00001073  00000-0 -82173-4 0  9999,2 55427  70.0002 169.9358 0002729 269.1983  90.8863 14.98324460 38166,6950.21,96.107,573.972,570.178,0.0
55427.0,STARLINK-5073,PAYLOAD,2023-10-01 19:10:37,14.98333382,0.000297,69.9999,168.2525,270.8731,89.2087,-6.4114e-05,-8.58e-06,0.0,0 STARLINK-5073,1 55427U 23014AN  23274.79904259 -.00000858  00000-0 -64114-4 0  9999,2 55427  69.9999 168.2525 0002970 270.8731  89.2087 14.98333382 37324,6950.182,96.107,574.112,569.983,0.0
55427.0,STARLINK-5073,PAYLOAD,2023-10-01 20:46:45,14.98334612,0.0002897,70.0001,168.0846,270.6445,89.4382,-4.3863e-05,-6.16e-06,0.0,0 STARLINK-5073,1 55427U 23014AN  23274.86580131 -.00000616  00000-0 -43863-4 0  9996,2 55427  70.0001 168.0846 0002897 270.6445  89.4382 14.98334612 38275,6950.179,96.107,574.057,570.03,0.0
55427.0,STARLINK-5073,PAYLOAD,2023-10-02 01:35:09,14.98339685,0.0002754,69.9997,167.5798,264.6756,95.4089,-1.653e-05,-2.9e-06,0.0,0 STARLINK-5073,1 55427U 23014AN  23275.06607646 -.00000290  00000-0 -16530-4 0  9999,2 55427  69.9997 167.5798 0002754 264.6756  95.4089 14.98339685 37361,6950.163,96.106,573.942,570.114,0.0
55427.0,STARLINK-5073,PAYLOAD,2023-10-02 09:35:48,14.98353949,0.0002962,69.9999,166.7382,273.3265,86.7555,-0.00017208,-2.147e-05,0.0,0 STARLINK-5073,1 55427U 23014AN  23275.39986878 -.00002147  00000-0 -17208-3 0  9997,2 55427  69.9999 166.7382 0002962 273.3265  86.7555 14.98353949 37412,6950.119,96.105,574.042,569.925,0.0
55427.0,STARLINK-5073,PAYLOAD,2023-10-02 19:12:36,14.98328648,0.0002878,69.9995,165.728,272.339,87.744,0.00042085,4.932e-05,0.0,0 STARLINK-5073,1 55427U 23014AN  23275.80042798  .00004932  00000-0  42085-3 0  9990,2 55427  69.9995 165.7280 0002878 272.3390  87.7440 14.98328648 37476,6950.197,96.107,574.062,570.062,0.0
55427.0,STARLINK-5073,PAYLOAD,2023-10-02 20:48:44,14.98339699,0.0002777,69.9998,165.5599,273.1697,86.9144,0.00026705,3.096e-05,0.0,0 STARLINK-5073,1 55427U 23014AN  23275.86718483  .00003096  00000-0  26705-3 0  9998,2 55427  69.9998 165.5599 0002777 273.1697  86.9144 14.98339699 38423,6950.163,96.106,573.958,570.098,0.0
55427.0,STARLINK-5073,PAYLOAD,2023-10-03 01:37:08,14.98343172,0.0002845,69.9996,165.0547,271.589,88.4943,0.0002426,2.804e-05,0.0,0 STARLINK-5073,1 55427U 23014AN  23276.06746161  .00002804  00000-0  24260-3 0  9995,2 55427  69.9996 165.0547 0002845 271.5890  88.4943 14.98343172 37516,6950.152,96.106,573.994,570.04,0.0
55427.0,STARLINK-5073,PAYLOAD,2023-10-03 09:37:49,14.98340486,0.0002958,70.0004,164.2133,277.4099,82.6724,-7.2095e-05,-9.53e-06,0.0,0 STARLINK-5073,1 55427U 23014AN  23276.40126927 -.00000953  00000-0 -72095-4 0  9990,2 55427  70.0004 164.2133 0002958 277.4099  82.6724 14.98340486 37565,6950.16,96.106,574.081,569.97,0.0
